OBJECT_NAME,OBJECT_ID,EPOCH,MEAN_MOTION,ECCENTRICITY,INCLINATION,RA_OF_ASC_NODE,ARG_OF_PERICENTER,MEAN_ANOMALY,EPHEMERIS_TYPE,CLASSIFICATION_TYPE,NORAD_CAT_ID,ELEMENT_SET_NO,REV_AT_EPOCH,BSTAR,MEAN_MOTION_DOT,MEAN_MOTION_DDOT
EYESAT A (AO-27),1993-061C,2026-06-06T03:52:47.686656,14.30939453,.00093193,98.6881,224.5788,128.3120,231.8902,0,U,22825,999,70542,.65389585E-4,.127E-5,0
ITAMSAT (IO-26),1993-061D,2026-06-06T10:10:31.538496,14.31365980,.00100328,98.6828,224.7574,112.9281,247.2962,0,U,22826,999,70577,.61228032E-4,.118E-5,0
RADIO ROSTO (RS15),1994-085A,2026-06-06T19:52:23.299680,11.27583599,.0155632,64.8186,319.9701,5.7894,354.4784,0,U,23439,999,29473,.16114E-3,-.37E-6,0
JAS-2 (FO-29),1996-046B,2026-06-06T19:29:45.551328,13.53273649,.0350721,98.5249,8.1055,123.2843,240.2413,0,U,24278,999,47176,.81643E-5,-.24E-6,0
FORTE,1997-047A,2026-06-06T09:03:16.720704,14.27941052,.00244477,69.9543,38.4383,290.4591,69.3907,0,U,24920,999,49714,.10020475E-3,.191E-5,0
TECHSAT 1B (GO-32),1998-043D,2026-06-06T14:21:22.434912,14.24426350,.0000464,99.0065,150.0898,193.9791,166.1374,0,U,25397,999,44982,.49896E-4,.69E-6,0
ISS (ZARYA),1998-067A,2026-06-06T20:52:03.052128,15.49642340,.0006978,51.6338,351.1688,142.0049,218.1433,0,U,25544,999,57015,.17237E-3,.9276E-4,0
IMAGE,2000-017A,2026-06-01T06:23:33.544608,1.68666062,.74437368,94.2162,315.1599,289.6105,8.6041,0,U,26113,999,16123,-.18882371E-1,-.99E-6,0
CLUSTER II-FM7 (SAMBA),2000-041A,2026-06-08T05:08:54.965184,0.44821039,.9044305,149.9021,49.0985,266.1693,359.9197,0,U,26410,999,2027,0,.4289E-4,0
CLUSTER II-FM8 (TANGO),2000-045B,2026-06-06T04:22:15.256992,0.44406384,.9046202,150.1407,49.6985,266.6195,3.2041,0,U,26464,999,2026,0,.4544E-4,0
ODIN,2001-007A,2026-06-06T14:31:17.518368,15.72403911,.0006155,97.3858,197.8935,156.3152,203.8396,0,U,26702,999,38773,.1248E-2,.168608E-2,0
OMNI-M1,2001-026A,2026-06-06T06:31:40.755072,3.92401464,.0014521,44.8341,247.7806,52.1871,307.9956,0,U,26857,999,20514,0,-.11E-6,0
PCSAT (NO-44),2001-043C,2026-06-06T14:42:12.832992,14.31952422,.0006117,67.0513,271.6217,264.1922,95.8483,0,U,26931,999,28893,.90579E-4,.16E-5,0
PROBA-1,2001-049B,2026-06-06T20:21:16.604640,15.07447312,.0055434,97.9599,166.0200,156.3870,203.9920,0,U,26958,999,34206,.13914E-3,.2112E-4,0
SAUDISAT 1C (SO-50),2002-058C,2026-06-06T16:52:37.289568,14.83024338,.0075466,64.5504,161.4222,264.4088,94.8408,0,U,27607,999,26290,.15193E-3,.1144E-4,0
CORIOLIS,2003-001A,2026-06-06T18:26:24.976032,14.19941982,.0012914,98.7127,164.8123,240.8176,119.1709,0,U,27640,999,21274,.74669E-4,.115E-5,0
CUTE-1 (CO-55),2003-031E,2026-06-06T11:59:55.616928,14.24329258,.0008851,98.6735,166.1932,210.1158,149.9513,0,U,27844,999,19015,.15775E-3,.321E-5,0
CUBESAT XI-IV (CO-57),2003-031J,2026-06-06T13:16:47.996256,14.23615194,.0008459,98.6767,165.9671,230.3427,129.7005,0,U,27848,999,18986,.13659E-3,.268E-5,0
MOZHAETS 4 (RS22),2003-042A,2026-06-06T21:34:01.780608,14.73450646,.0010242,98.3470,341.9669,306.4946,160.0415,0,U,27939,999,21403,.23703E-3,.1485E-4,0
