EYESAT A (AO-27)        
1 22825U 93061C   26157.16166304  .00000127  00000+0  65390-4 0  9992
2 22825  98.6881 224.5788 0009319 128.3120 231.8902 14.30939453705420
ITAMSAT (IO-26)         
1 22826U 93061D   26157.42397614  .00000118  00000+0  61228-4 0  9998
2 22826  98.6828 224.7574 0010032 112.9281 247.2962 14.31365980705772
RADIO ROSTO (RS15)      
1 23439U 94085A   26157.82804745 -.00000037  00000+0  16114-3 0  9992
2 23439  64.8186 319.9701 0155632   5.7894 354.4784 11.27583599294731
JAS-2 (FO-29)           
1 24278U 96046B   26157.81233277 -.00000024  00000+0  81643-5 0  9995
2 24278  98.5249   8.1055 0350721 123.2843 240.2413 13.53273649471766
FORTE                   
1 24920U 97047A   26157.37727686  .00000191  00000+0  10020-3 0  9997
2 24920  69.9543  38.4383 0024447 290.4591  69.3907 14.27941052497149
TECHSAT 1B (GO-32)      
1 25397U 98043D   26157.59817633  .00000069  00000+0  49896-4 0  9997
2 25397  99.0065 150.0898 0000464 193.9791 166.1374 14.24426350449827
ISS (ZARYA)             
1 25544U 98067A   26157.86947977  .00009276  00000+0  17237-3 0  9994
2 25544  51.6338 351.1688 0006978 142.0049 218.1433 15.49642340570158
IMAGE                   
1 26113U 00017A   26152.26636047 -.00000099  00000+0 -18882-1 0  9998
2 26113  94.2162 315.1599 7443736 289.6105   8.6041  1.68666062161230
CLUSTER II-FM7 (SAMBA)  
1 26410U 00041A   26159.21452506  .00004289  00000+0  00000+0 0  9997
2 26410 149.9021  49.0985 9044305 266.1693 359.9197  0.44821039 20279
CLUSTER II-FM8 (TANGO)  
1 26464U 00045B   26157.18212103  .00004544  00000+0  00000+0 0  9995
2 26464 150.1407  49.6985 9046202 266.6195   3.2041  0.44406384 20264
ODIN                    
1 26702U 01007A   26157.60506387  .00168608  00000+0  12480-2 0  9996
2 26702  97.3858 197.8935 0006155 156.3152 203.8396 15.72403911387733
OMNI-M1                 
1 26857U 01026A   26157.27199948 -.00000011  00000+0  00000+0 0  9998
2 26857  44.8341 247.7806 0014521  52.1871 307.9956  3.92401464205149
PCSAT (NO-44)           
1 26931U 01043C   26157.61264853  .00000160  00000+0  90579-4 0  9995
2 26931  67.0513 271.6217 0006117 264.1922  95.8483 14.31952422288932
PROBA-1                 
1 26958U 01049B   26157.84810885  .00002112  00000+0  13914-3 0  9993
2 26958  97.9599 166.0200 0055434 156.3870 203.9920 15.07447312342060
SAUDISAT 1C (SO-50)     
1 27607U 02058C   26157.70320937  .00001144  00000+0  15193-3 0  9990
2 27607  64.5504 161.4222 0075466 264.4088  94.8408 14.83024338262904
CORIOLIS                
1 27640U 03001A   26157.76834463  .00000115  00000+0  74669-4 0  9997
2 27640  98.7127 164.8123 0012914 240.8176 119.1709 14.19941982212747
CUTE-1 (CO-55)          
1 27844U 03031E   26157.49994927  .00000321  00000+0  15775-3 0  9999
2 27844  98.6735 166.1932 0008851 210.1158 149.9513 14.24329258190151
CUBESAT XI-IV (CO-57)   
1 27848U 03031J   26157.55333329  .00000268  00000+0  13659-3 0  9992
2 27848  98.6767 165.9671 0008459 230.3427 129.7005 14.23615194189868
MOZHAETS 4 (RS22)       
1 27939U 03042A   26157.89863172  .00001485  00000+0  23703-3 0  9999
2 27939  98.3470 341.9669 0010242 306.4946 160.0415 14.73450646214039
